{"type": "FeatureCollection", "features": [ {"type": "Feature", "properties": {"norad_id": 39634, "name": "SENTINEL-1A", "group": "resource", "lat": -39.47612638509019, "lon": 13.550135487583335, "alt_km": 702.7325555677144, "timestamp": "2025-12-27T17:24:57.050530+00:00", "meta": {"OBJECT_NAME": "SENTINEL-1A", "OBJECT_ID": "2014-016A", "EPOCH": "2025-12-27T12:39:41.444928", "MEAN_MOTION": 14.59200802, "ECCENTRICITY": 0.0001282, "INCLINATION": 98.1807, "RA_OF_ASC_NODE": 6.5504, "ARG_OF_PERICENTER": 83.5251, "MEAN_ANOMALY": 276.6095, "EPHEMERIS_TYPE": 0, "CLASSIFICATION_TYPE": "U", "NORAD_CAT_ID": 39634, "ELEMENT_SET_NO": 999, "REV_AT_EPOCH": 62498, "BSTAR": 6.7173e-05, "MEAN_MOTION_DOT": 2.71e-06, "MEAN_MOTION_DDOT": 0}, "tle": {"line1": "1 39634U 14016A   25361.52756302  .00000271  00000+0  67173-4 0  9991", "line2": "2 39634  98.1807   6.5504 0001282  83.5251 276.6095 14.59200802624982"}}, "geometry": {"type": "Point", "coordinates": [13.550135487583335, -39.47612638509019]}}, {"type": "Feature", "properties": {"norad_id": 39731, "name": "KAZEOSAT 1", "group": "resource", "lat": 81.46665067329583, "lon": -28.805124757532862, "alt_km": 743.3066045450687, "timestamp": "2025-12-27T17:24:57.050541+00:00", "meta": {"OBJECT_NAME": "KAZEOSAT 1", "OBJECT_ID": "2014-024A", "EPOCH": "2025-12-27T11:59:46.317696", "MEAN_MOTION": 14.42071688, "ECCENTRICITY": 0.0001259, "INCLINATION": 98.3411, "RA_OF_ASC_NODE": 73.0748, "ARG_OF_PERICENTER": 96.0245, "MEAN_ANOMALY": 264.1088, "EPHEMERIS_TYPE": 0, "CLASSIFICATION_TYPE": "U", "NORAD_CAT_ID": 39731, "ELEMENT_SET_NO": 999, "REV_AT_EPOCH": 61381, "BSTAR": 0.00016802, "MEAN_MOTION_DOT": 5.09e-06, "MEAN_MOTION_DDOT": 0}, "tle": {"line1": "1 39731U 14024A   25361.49984164  .00000509  00000+0  16802-3 0  9999", "line2": "2 39731  98.3411  73.0748 0001259  96.0245 264.1088 14.42071688613812"}}, "geometry": {"type": "Point", "coordinates": [-28.805124757532862, 81.46665067329583]}}, {"type": "Feature", "properties": {"norad_id": 39766, "name": "ALOS-2", "group": "resource", "lat": -10.459697917689914, "lon": -85.11478260486149, "alt_km": 635.2603539404054, "timestamp": "2025-12-27T17:24:57.050551+00:00", "meta": {"OBJECT_NAME": "ALOS-2", "OBJECT_ID": "2014-029A", "EPOCH": "2025-12-27T13:18:41.418720", "MEAN_MOTION": 14.79473689, "ECCENTRICITY": 0.0001441, "INCLINATION": 97.9213, "RA_OF_ASC_NODE": 96.1896, "ARG_OF_PERICENTER": 100.6605, "MEAN_ANOMALY": 259.4769, "EPHEMERIS_TYPE": 0, "CLASSIFICATION_TYPE": "U", "NORAD_CAT_ID": 39766, "ELEMENT_SET_NO": 999, "REV_AT_EPOCH": 62620, "BSTAR": 0.00078794, "MEAN_MOTION_DOT": 5.838e-05, "MEAN_MOTION_DDOT": 0}, "tle": {"line1": "1 39766U 14029A   25361.55464605  .00005838  00000+0  78794-3 0  9990", "line2": "2 39766  97.9213  96.1896 0001441 100.6605 259.4769 14.79473689626207"}}, "geometry": {"type": "Point", "coordinates": [-85.11478260486149, -10.459697917689914]}}, {"type": "Feature", "properties": {"norad_id": 40010, "name": "KAZEOSAT 2", "group": "resource", "lat": 47.01645842072407, "lon": -162.91528203711852, "alt_km": 610.8661588829291, "timestamp": "2025-12-27T17:24:57.050562+00:00", "meta": {"OBJECT_NAME": "KAZEOSAT 2", "OBJECT_ID": "2014-033A", "EPOCH": "2025-12-27T12:21:04.812192", "MEAN_MOTION": 14.8519096, "ECCENTRICITY": 0.000894, "INCLINATION": 97.5497, "RA_OF_ASC_NODE": 205.0659, "ARG_OF_PERICENTER": 157.0117, "MEAN_ANOMALY": 203.1501, "EPHEMERIS_TYPE": 0, "CLASSIFICATION_TYPE": "U", "NORAD_CAT_ID": 40010, "ELEMENT_SET_NO": 999, "REV_AT_EPOCH": 62347, "BSTAR": 8.403e-05, "MEAN_MOTION_DOT": 6.7e-06, "MEAN_MOTION_DDOT": 0}, "tle": {"line1": "1 40010U 14033A   25361.51463903  .00000670  00000+0  84030-4 0  9995", "line2": "2 40010  97.5497 205.0659 0008940 157.0117 203.1501 14.85190960623475"}}, "geometry": {"type": "Point", "coordinates": [-162.91528203711852, 47.01645842072407]}}, {"type": "Feature", "properties": {"norad_id": 40011, "name": "HODOYOSHI-4", "group": "resource", "lat": -78.41669538650423, "lon": -30.39409231436857, "alt_km": 618.8486753263369, "timestamp": "2025-12-27T17:24:57.050572+00:00", "meta": {"OBJECT_NAME": "HODOYOSHI-4", "OBJECT_ID": "2014-033B", "EPOCH": "2025-12-27T13:01:05.438784", "MEAN_MOTION": 14.87536602, "ECCENTRICITY": 0.0024426, "INCLINATION": 97.5413, "RA_OF_ASC_NODE": 189.697, "ARG_OF_PERICENTER": 151.5405, "MEAN_ANOMALY": 208.7152, "EPHEMERIS_TYPE": 0, "CLASSIFICATION_TYPE": "U", "NORAD_CAT_ID": 40011, "ELEMENT_SET_NO": 999, "REV_AT_EPOCH": 62328, "BSTAR": 0.00036073, "MEAN_MOTION_DOT": 3.239e-05, "MEAN_MOTION_DDOT": 0}, "tle": {"line1": "1 40011U 14033B   25361.54242406  .00003239  00000+0  36073-3 0  9999", "line2": "2 40011  97.5413 189.6970 0024426 151.5405 208.7152 14.87536602623284"}}, "geometry": {"type": "Point", "coordinates": [-30.39409231436857, -78.41669538650423]}}, {"type": "Feature", "properties": {"norad_id": 40013, "name": "DEIMOS-2", "group": "resource", "lat": -5.7852315569507775, "lon": -122.19328223281057, "alt_km": 592.7230340508013, "timestamp": "2025-12-27T17:24:57.050582+00:00", "meta": {"OBJECT_NAME": "DEIMOS-2", "OBJECT_ID": "2014-033D", "EPOCH": "2025-12-27T12:36:59.518368", "MEAN_MOTION": 14.93033046, "ECCENTRICITY": 0.0001503, "INCLINATION": 97.605, "RA_OF_ASC_NODE": 236.8378, "ARG_OF_PERICENTER": 111.5727, "MEAN_ANOMALY": 248.5654, "EPHEMERIS_TYPE": 0, "CLASSIFICATION_TYPE": "U", "NORAD_CAT_ID": 40013, "ELEMENT_SET_NO": 999, "REV_AT_EPOCH": 61210, "BSTAR": 6.8598e-05, "MEAN_MOTION_DOT": 6.59e-06, "MEAN_MOTION_DDOT": 0}, "tle": {"line1": "1 40013U 14033D   25361.52568887  .00000659  00000+0  68598-4 0  9994", "line2": "2 40013  97.6050 236.8378 0001503 111.5727 248.5654 14.93033046612104"}}, "geometry": {"type": "Point", "coordinates": [-122.19328223281057, -5.7852315569507775]}}, {"type": "Feature", "properties": {"norad_id": 40015, "name": "HODOYOSHI-3", "group": "resource", "lat": 41.51650856648927, "lon": 160.1031308258696, "alt_km": 631.4479386500298, "timestamp": "2025-12-27T17:24:57.050592+00:00", "meta": {"OBJECT_NAME": "HODOYOSHI-3", "OBJECT_ID": "2014-033F", "EPOCH": "2025-12-27T10:45:25.135776", "MEAN_MOTION": 14.84857805, "ECCENTRICITY": 0.0032702, "INCLINATION": 97.6206, "RA_OF_ASC_NODE": 166.6445, "ARG_OF_PERICENTER": 198.0165, "MEAN_ANOMALY": 161.9894, "EPHEMERIS_TYPE": 0, "CLASSIFICATION_TYPE": "U", "NORAD_CAT_ID": 40015, "ELEMENT_SET_NO": 999, "REV_AT_EPOCH": 62213, "BSTAR": 0.00021486, "MEAN_MOTION_DOT": 1.791e-05, "MEAN_MOTION_DDOT": 0}, "tle": {"line1": "1 40015U 14033F   25361.44820759  .00001791  00000+0  21486-3 0  9998", "line2": "2 40015  97.6206 166.6445 0032702 198.0165 161.9894 14.84857805622130"}}, "geometry": {"type": "Point", "coordinates": [160.1031308258696, 41.51650856648927]}}, {"type": "Feature", "properties": {"norad_id": 40053, "name": "SPOT 7", "group": "resource", "lat": -81.61766467086736, "lon": 168.6427549015762, "alt_km": 699.1507738972659, "timestamp": "2025-12-27T17:24:57.050602+00:00", "meta": {"OBJECT_NAME": "SPOT 7", "OBJECT_ID": "2014-034A", "EPOCH": "2025-12-27T11:15:41.776992", "MEAN_MOTION": 14.60752947, "ECCENTRICITY": 0.0001513, "INCLINATION": 98.0882, "RA_OF_ASC_NODE": 63.2038, "ARG_OF_PERICENTER": 80.0921, "MEAN_ANOMALY": 280.0451, "EPHEMERIS_TYPE": 0, "CLASSIFICATION_TYPE": "U", "NORAD_CAT_ID": 40053, "ELEMENT_SET_NO": 999, "REV_AT_EPOCH": 61206, "BSTAR": 0.00017097, "MEAN_MOTION_DOT": 7.88e-06, "MEAN_MOTION_DDOT": 0}, "tle": {"line1": "1 40053U 14034A   25361.46923353  .00000788  00000+0  17097-3 0  9995", "line2": "2 40053  98.0882  63.2038 0001513  80.0921 280.0451 14.60752947612061"}}, "geometry": {"type": "Point", "coordinates": [168.6427549015762, -81.61766467086736]}}, {"type": "Feature", "properties": {"norad_id": 40072, "name": "SKYSAT-B", "group": "resource", "lat": -16.77023803541894, "lon": 123.68398383971365, "alt_km": 610.9076530866723, "timestamp": "2025-12-27T17:24:57.050612+00:00", "meta": {"OBJECT_NAME": "SKYSAT-B", "OBJECT_ID": "2014-037D", "EPOCH": "2025-12-26T19:32:42.335232", "MEAN_MOTION": 14.87377636, "ECCENTRICITY": 0.00068783, "INCLINATION": 98.363, "RA_OF_ASC_NODE": 305.2652, "ARG_OF_PERICENTER": 111.2738, "MEAN_ANOMALY": 248.9212, "EPHEMERIS_TYPE": 0, "CLASSIFICATION_TYPE": "U", "NORAD_CAT_ID": 40072, "ELEMENT_SET_NO": 999, "REV_AT_EPOCH": 62033, "BSTAR": 0.00022123811, "MEAN_MOTION_DOT": 1.939e-05, "MEAN_MOTION_DDOT": 0}, "tle": {"line1": "1 40072U 14037D   25360.81437888  .00001939  00000+0  22124-3 0  9996", "line2": "2 40072  98.3630 305.2652 0006878 111.2738 248.9212 14.87377636620333"}}, "geometry": {"type": "Point", "coordinates": [123.68398383971365, -16.77023803541894]}}, {"type": "Feature", "properties": {"norad_id": 40115, "name": "WORLDVIEW-3 (WV-3)", "group": "resource", "lat": -41.56855190761347, "lon": 80.87540561543454, "alt_km": 622.6431807639965, "timestamp": "2025-12-27T17:24:57.050622+00:00", "meta": {"OBJECT_NAME": "WORLDVIEW-3 (WV-3)", "OBJECT_ID": "2014-048A", "EPOCH": "2025-12-27T11:08:05.965152", "MEAN_MOTION": 14.84682122, "ECCENTRICITY": 0.0002131, "INCLINATION": 97.8762, "RA_OF_ASC_NODE": 73.5649, "ARG_OF_PERICENTER": 125.7387, "MEAN_ANOMALY": 234.4026, "EPHEMERIS_TYPE": 0, "CLASSIFICATION_TYPE": "U", "NORAD_CAT_ID": 40115, "ELEMENT_SET_NO": 999, "REV_AT_EPOCH": 61642, "BSTAR": 0.00015421, "MEAN_MOTION_DOT": 1.252e-05, "MEAN_MOTION_DDOT": 0}, "tle": {"line1": "1 40115U 14048A   25361.46395793  .00001252  00000+0  15421-3 0  9996", "line2": "2 40115  97.8762  73.5649 0002131 125.7387 234.4026 14.84682122616424"}}, "geometry": {"type": "Point", "coordinates": [80.87540561543454, -41.56855190761347]}}]}